[{"OBJECT_NAME":"STARLINK-34462","OBJECT_ID":"2025-133X","EPOCH":"2026-01-17T23:19:29.556768","MEAN_MOTION":15.30202932,"ECCENTRICITY":0.00013661,"INCLINATION":53.161,"RA_OF_ASC_NODE":352.3467,"ARG_OF_PERICENTER":99.8898,"MEAN_ANOMALY":260.2257,"EPHEMERIS_TYPE":0,"CLASSIFICATION_TYPE":"U","NORAD_CAT_ID":64493,"ELEMENT_SET_NO":999,"REV_AT_EPOCH":3342,"BSTAR":0.00081382807,"MEAN_MOTION_DOT":0.00023824,"MEAN_MOTION_DDOT":0},{"OBJECT_NAME":"STARLINK-34226","OBJECT_ID":"2025-133Y","EPOCH":"2026-01-17T15:24:40.006944","MEAN_MOTION":15.30196422,"ECCENTRICITY":0.00015328,"INCLINATION":53.1617,"RA_OF_ASC_NODE":353.843,"ARG_OF_PERICENTER":87.3693,"MEAN_ANOMALY":272.7483,"EPHEMERIS_TYPE":0,"CLASSIFICATION_TYPE":"U","NORAD_CAT_ID":64494,"ELEMENT_SET_NO":999,"REV_AT_EPOCH":3320,"BSTAR":0.00056147,"MEAN_MOTION_DOT":0.00016305,"MEAN_MOTION_DDOT":0},{"OBJECT_NAME":"STARLINK-34364","OBJECT_ID":"2025-133Z","EPOCH":"2026-01-17T21:38:35.579616","MEAN_MOTION":15.30219189,"ECCENTRICITY":0.00024405,"INCLINATION":53.1613,"RA_OF_ASC_NODE":350.4697,"ARG_OF_PERICENTER":86.1014,"MEAN_ANOMALY":274.0265,"EPHEMERIS_TYPE":0,"CLASSIFICATION_TYPE":"U","NORAD_CAT_ID":64495,"ELEMENT_SET_NO":999,"REV_AT_EPOCH":3344,"BSTAR":0.0011059593,"MEAN_MOTION_DOT":0.0003256,"MEAN_MOTION_DDOT":0},{"OBJECT_NAME":"STARLINK-34268","OBJECT_ID":"2025-133AA","EPOCH":"2026-01-17T21:37:50.340576","MEAN_MOTION":15.30221035,"ECCENTRICITY":0.00014649,"INCLINATION":53.1602,"RA_OF_ASC_NODE":352.6173,"ARG_OF_PERICENTER":90.8251,"MEAN_ANOMALY":269.2917,"EPHEMERIS_TYPE":0,"CLASSIFICATION_TYPE":"U","NORAD_CAT_ID":64496,"ELEMENT_SET_NO":999,"REV_AT_EPOCH":3341,"BSTAR":0.00086717436,"MEAN_MOTION_DOT":0.00025429,"MEAN_MOTION_DDOT":0},{"OBJECT_NAME":"STARLINK-34363","OBJECT_ID":"2025-133AB","EPOCH":"2026-01-17T15:14:01.869504","MEAN_MOTION":15.30195933,"ECCENTRICITY":0.00022298,"INCLINATION":53.1609,"RA_OF_ASC_NODE":353.7938,"ARG_OF_PERICENTER":91.363,"MEAN_ANOMALY":268.7626,"EPHEMERIS_TYPE":0,"CLASSIFICATION_TYPE":"U","NORAD_CAT_ID":64497,"ELEMENT_SET_NO":999,"REV_AT_EPOCH":3337,"BSTAR":0.00063435305,"MEAN_MOTION_DOT":0.00018473,"MEAN_MOTION_DDOT":0},{"OBJECT_NAME":"STARLINK-34427","OBJECT_ID":"2025-133AC","EPOCH":"2026-01-17T22:59:43.909440","MEAN_MOTION":15.30211351,"ECCENTRICITY":0.00012069,"INCLINATION":53.1597,"RA_OF_ASC_NODE":352.259,"ARG_OF_PERICENTER":98.2678,"MEAN_ANOMALY":261.8459,"EPHEMERIS_TYPE":0,"CLASSIFICATION_TYPE":"U","NORAD_CAT_ID":64498,"ELEMENT_SET_NO":999,"REV_AT_EPOCH":3342,"BSTAR":0.00061134737,"MEAN_MOTION_DOT":0.00017797,"MEAN_MOTION_DDOT":0},{"OBJECT_NAME":"STARLINK-34280","OBJECT_ID":"2025-137A","EPOCH":"2026-01-17T19:12:21.515328","MEAN_MOTION":15.30199862,"ECCENTRICITY":5.301e-5,"INCLINATION":53.1618,"RA_OF_ASC_NODE":211.6086,"ARG_OF_PERICENTER":77.0975,"MEAN_ANOMALY":283.0085,"EPHEMERIS_TYPE":0,"CLASSIFICATION_TYPE":"U","NORAD_CAT_ID":64594,"ELEMENT_SET_NO":999,"REV_AT_EPOCH":3294,"BSTAR":0.00079528539,"MEAN_MOTION_DOT":0.00023269,"MEAN_MOTION_DDOT":0},{"OBJECT_NAME":"STARLINK-34517","OBJECT_ID":"2025-137B","EPOCH":"2026-01-17T19:39:43.188768","MEAN_MOTION":15.3022689,"ECCENTRICITY":0.00015323,"INCLINATION":53.1573,"RA_OF_ASC_NODE":211.7247,"ARG_OF_PERICENTER":103.0358,"MEAN_ANOMALY":257.0814,"EPHEMERIS_TYPE":0,"CLASSIFICATION_TYPE":"U","NORAD_CAT_ID":64595,"ELEMENT_SET_NO":999,"REV_AT_EPOCH":3294,"BSTAR":0.00059857212,"MEAN_MOTION_DOT":0.00017425,"MEAN_MOTION_DDOT":0},{"OBJECT_NAME":"STARLINK-34510","OBJECT_ID":"2025-137C","EPOCH":"2026-01-17T22:40:13.160928","MEAN_MOTION":15.30198027,"ECCENTRICITY":0.00012478,"INCLINATION":53.1576,"RA_OF_ASC_NODE":211.087,"ARG_OF_PERICENTER":82.5736,"MEAN_ANOMALY":277.5407,"EPHEMERIS_TYPE":0,"CLASSIFICATION_TYPE":"U","NORAD_CAT_ID":64596,"ELEMENT_SET_NO":999,"REV_AT_EPOCH":3296,"BSTAR":0.00081383522,"MEAN_MOTION_DOT":0.0002382,"MEAN_MOTION_DDOT":0},{"OBJECT_NAME":"STARLINK-34486","OBJECT_ID":"2025-137D","EPOCH":"2026-01-17T16:58:57.011520","MEAN_MOTION":15.30228033,"ECCENTRICITY":5.573e-5,"INCLINATION":53.1578,"RA_OF_ASC_NODE":212.4436,"ARG_OF_PERICENTER":103.881,"MEAN_ANOMALY":256.2253,"EPHEMERIS_TYPE":0,"CLASSIFICATION_TYPE":"U","NORAD_CAT_ID":64597,"ELEMENT_SET_NO":999,"REV_AT_EPOCH":3292,"BSTAR":0.00043179818,"MEAN_MOTION_DOT":0.00012462,"MEAN_MOTION_DDOT":0},{"OBJECT_NAME":"STARLINK-34463","OBJECT_ID":"2025-137E","EPOCH":"2026-01-17T23:04:32.571840","MEAN_MOTION":15.3018938,"ECCENTRICITY":0.00013368,"INCLINATION":53.1588,"RA_OF_ASC_NODE":211.184,"ARG_OF_PERICENTER":84.2182,"MEAN_ANOMALY":275.8971,"EPHEMERIS_TYPE":0,"CLASSIFICATION_TYPE":"U","NORAD_CAT_ID":64598,"ELEMENT_SET_NO":999,"REV_AT_EPOCH":3296,"BSTAR":0.00069880447,"MEAN_MOTION_DOT":0.00020387,"MEAN_MOTION_DDOT":0},{"OBJECT_NAME":"STARLINK-34294","OBJECT_ID":"2025-137F","EPOCH":"2026-01-17T22:41:44.324160","MEAN_MOTION":15.30196277,"ECCENTRICITY":0.00011961,"INCLINATION":53.1581,"RA_OF_ASC_NODE":211.0908,"ARG_OF_PERICENTER":82.5424,"MEAN_ANOMALY":277.5712,"EPHEMERIS_TYPE":0,"CLASSIFICATION_TYPE":"U","NORAD_CAT_ID":64599,"ELEMENT_SET_NO":999,"REV_AT_EPOCH":3296,"BSTAR":0.00050659733,"MEAN_MOTION_DOT":0.00014673,"MEAN_MOTION_DDOT":0},{"OBJECT_NAME":"STARLINK-34504","OBJECT_ID":"2025-137G","EPOCH":"2026-01-17T20:04:01.460064","MEAN_MOTION":15.30192686,"ECCENTRICITY":0.0001144,"INCLINATION":53.1573,"RA_OF_ASC_NODE":211.8322,"ARG_OF_PERICENTER":79.3904,"MEAN_ANOMALY":280.7225,"EPHEMERIS_TYPE":0,"CLASSIFICATION_TYPE":"U","NORAD_CAT_ID":64600,"ELEMENT_SET_NO":999,"REV_AT_EPOCH":3294,"BSTAR":0.00050924971,"MEAN_MOTION_DOT":0.0001475,"MEAN_MOTION_DDOT":0},{"OBJECT_NAME":"STARLINK-34508","OBJECT_ID":"2025-137H","EPOCH":"2026-01-17T22:06:47.268288","MEAN_MOTION":15.3020023,"ECCENTRICITY":0.00013514,"INCLINATION":53.1622,"RA_OF_ASC_NODE":210.9403,"ARG_OF_PERICENTER":81.7579,"MEAN_ANOMALY":278.3575,"EPHEMERIS_TYPE":0,"CLASSIFICATION_TYPE":"U","NORAD_CAT_ID":64601,"ELEMENT_SET_NO":999,"REV_AT_EPOCH":3296,"BSTAR":0.00097793364,"MEAN_MOTION_DOT":0.00028717,"MEAN_MOTION_DDOT":0},{"OBJECT_NAME":"STARLINK-34435","OBJECT_ID":"2025-137J","EPOCH":"2026-01-17T22:37:10.750656","MEAN_MOTION":15.30201843,"ECCENTRICITY":0.00011123,"INCLINATION":53.1578,"RA_OF_ASC_NODE":211.0702,"ARG_OF_PERICENTER":79.5458,"MEAN_ANOMALY":280.5668,"EPHEMERIS_TYPE":0,"CLASSIFICATION_TYPE":"U","NORAD_CAT_ID":64602,"ELEMENT_SET_NO":999,"REV_AT_EPOCH":3296,"BSTAR":0.00090873427,"MEAN_MOTION_DOT":0.00026653,"MEAN_MOTION_DDOT":0},{"OBJECT_NAME":"STARLINK-34475","OBJECT_ID":"2025-137K","EPOCH":"2026-01-17T22:28:03.636480","MEAN_MOTION":15.30190707,"ECCENTRICITY":0.00016399,"INCLINATION":53.1584,"RA_OF_ASC_NODE":211.0293,"ARG_OF_PERICENTER":87.6448,"MEAN_ANOMALY":272.4741,"EPHEMERIS_TYPE":0,"CLASSIFICATION_TYPE":"U","NORAD_CAT_ID":64603,"ELEMENT_SET_NO":999,"REV_AT_EPOCH":3296,"BSTAR":0.00083262339,"MEAN_MOTION_DOT":0.00024375,"MEAN_MOTION_DDOT":0}]
