STARLINK-34462          
1 64493U 25133X   26017.97186987  .00023824  00000+0  81383-3 0  9995
2 64493  53.1610 352.3467 0001366  99.8898 260.2257 15.30202932 33424
STARLINK-34226          
1 64494U 25133Y   26017.64212971  .00016305  00000+0  56147-3 0  9999
2 64494  53.1617 353.8430 0001532  87.3693 272.7483 15.30196422 33209
STARLINK-34364          
1 64495U 25133Z   26017.90180069  .00032560  00000+0  11060-2 0  9996
2 64495  53.1613 350.4697 0002440  86.1014 274.0265 15.30219189 33442
STARLINK-34268          
1 64496U 25133AA  26017.90127709  .00025429  00000+0  86717-3 0  9997
2 64496  53.1602 352.6173 0001464  90.8251 269.2917 15.30221035 33414
STARLINK-34363          
1 64497U 25133AB  26017.63474386  .00018473  00000+0  63435-3 0  9997
2 64497  53.1609 353.7938 0002229  91.3630 268.7626 15.30195933 33373
STARLINK-34427          
1 64498U 25133AC  26017.95814710  .00017797  00000+0  61135-3 0  9995
2 64498  53.1597 352.2590 0001206  98.2678 261.8459 15.30211351 33427
STARLINK-34280          
1 64594U 25137A   26017.80024902  .00023269  00000+0  79529-3 0  9993
2 64594  53.1618 211.6086 0000530  77.0975 283.0085 15.30199862 32949
STARLINK-34517          
1 64595U 25137B   26017.81924987  .00017425  00000+0  59857-3 0  9996
2 64595  53.1573 211.7247 0001532 103.0358 257.0814 15.30226890 32941
STARLINK-34510          
1 64596U 25137C   26017.94459677  .00023820  00000+0  81384-3 0  9996
2 64596  53.1576 211.0870 0001247  82.5736 277.5407 15.30198027 32961
STARLINK-34486          
1 64597U 25137D   26017.70760430  .00012462  00000+0  43180-3 0  9995
2 64597  53.1578 212.4436 0000557 103.8810 256.2253 15.30228033 32920
STARLINK-34463          
1 64598U 25137E   26017.96148810  .00020387  00000+0  69880-3 0  9996
2 64598  53.1588 211.1840 0001336  84.2182 275.8971 15.30189380 32966
STARLINK-34294          
1 64599U 25137F   26017.94565190  .00014673  00000+0  50660-3 0  9996
2 64599  53.1581 211.0908 0001196  82.5424 277.5712 15.30196277 32963
STARLINK-34504          
1 64600U 25137G   26017.83612801  .00014750  00000+0  50925-3 0  9999
2 64600  53.1573 211.8322 0001144  79.3904 280.7225 15.30192686 32948
STARLINK-34508          
1 64601U 25137H   26017.92138042  .00028717  00000+0  97793-3 0  9992
2 64601  53.1622 210.9403 0001351  81.7579 278.3575 15.30200230 32967
STARLINK-34435          
1 64602U 25137J   26017.94248554  .00026653  00000+0  90873-3 0  9994
2 64602  53.1578 211.0702 0001112  79.5458 280.5668 15.30201843 32967
STARLINK-34475          
1 64603U 25137K   26017.93615320  .00024375  00000+0  83262-3 0  9996
2 64603  53.1584 211.0293 0001639  87.6448 272.4741 15.30190707 32961
